[{"OBJECT_NAME":"STARLINK-11297 [DTC]","OBJECT_ID":"2024-164L","EPOCH":"2025-08-10T17:39:53.801568","MEAN_MOTION":15.6969298,"ECCENTRICITY":0.000127,"INCLINATION":53.1573,"RA_OF_ASC_NODE":271.3821,"ARG_OF_PERICENTER":79.2364,"MEAN_ANOMALY":280.8797,"EPHEMERIS_TYPE":0,"CLASSIFICATION_TYPE":"U","NORAD_CAT_ID":61060,"ELEMENT_SET_NO":999,"REV_AT_EPOCH":5228,"BSTAR":-9.6751e-6,"MEAN_MOTION_DOT":-1.76e-5,"MEAN_MOTION_DDOT":0},{"OBJECT_NAME":"STARLINK-11233 [DTC]","OBJECT_ID":"2024-164M","EPOCH":"2025-08-11T02:42:56.300832","MEAN_MOTION":15.69686802,"ECCENTRICITY":3.43e-5,"INCLINATION":53.1583,"RA_OF_ASC_NODE":269.4661,"ARG_OF_PERICENTER":131.4297,"MEAN_ANOMALY":228.675,"EPHEMERIS_TYPE":0,"CLASSIFICATION_TYPE":"U","NORAD_CAT_ID":61061,"ELEMENT_SET_NO":999,"REV_AT_EPOCH":5234,"BSTAR":-4.1394e-5,"MEAN_MOTION_DOT":-5.593e-5,"MEAN_MOTION_DDOT":0},{"OBJECT_NAME":"STARLINK-11236 [DTC]","OBJECT_ID":"2024-164N","EPOCH":"2025-08-11T02:35:51.367488","MEAN_MOTION":15.69679321,"ECCENTRICITY":2.02e-5,"INCLINATION":53.1589,"RA_OF_ASC_NODE":269.4307,"ARG_OF_PERICENTER":153.1701,"MEAN_ANOMALY":206.9327,"EPHEMERIS_TYPE":0,"CLASSIFICATION_TYPE":"U","NORAD_CAT_ID":61062,"ELEMENT_SET_NO":999,"REV_AT_EPOCH":5234,"BSTAR":-6.1091e-5,"MEAN_MOTION_DOT":-7.971e-5,"MEAN_MOTION_DDOT":0},{"OBJECT_NAME":"STARLINK-32350","OBJECT_ID":"2024-164P","EPOCH":"2025-08-10T15:07:43.113504","MEAN_MOTION":15.30180553,"ECCENTRICITY":0.0001179,"INCLINATION":53.1618,"RA_OF_ASC_NODE":351.4567,"ARG_OF_PERICENTER":98.8088,"MEAN_ANOMALY":261.3046,"EPHEMERIS_TYPE":0,"CLASSIFICATION_TYPE":"U","NORAD_CAT_ID":61063,"ELEMENT_SET_NO":999,"REV_AT_EPOCH":5116,"BSTAR":-1.0756e-5,"MEAN_MOTION_DOT":-6.77e-6,"MEAN_MOTION_DDOT":0},{"OBJECT_NAME":"STARLINK-32378","OBJECT_ID":"2024-164Q","EPOCH":"2025-08-10T15:12:17.144064","MEAN_MOTION":15.30173922,"ECCENTRICITY":0.0001186,"INCLINATION":53.1626,"RA_OF_ASC_NODE":351.4746,"ARG_OF_PERICENTER":74.8314,"MEAN_ANOMALY":285.2818,"EPHEMERIS_TYPE":0,"CLASSIFICATION_TYPE":"U","NORAD_CAT_ID":61064,"ELEMENT_SET_NO":999,"REV_AT_EPOCH":5214,"BSTAR":-9.4e-5,"MEAN_MOTION_DOT":-3.14e-5,"MEAN_MOTION_DDOT":0},{"OBJECT_NAME":"STARLINK-32321","OBJECT_ID":"2024-164R","EPOCH":"2025-08-10T15:25:57.916416","MEAN_MOTION":15.30174231,"ECCENTRICITY":0.0001194,"INCLINATION":53.1617,"RA_OF_ASC_NODE":351.5335,"ARG_OF_PERICENTER":86.0991,"MEAN_ANOMALY":274.0146,"EPHEMERIS_TYPE":0,"CLASSIFICATION_TYPE":"U","NORAD_CAT_ID":61065,"ELEMENT_SET_NO":999,"REV_AT_EPOCH":5219,"BSTAR":-0.00010512,"MEAN_MOTION_DOT":-3.468e-5,"MEAN_MOTION_DDOT":0},{"OBJECT_NAME":"STARLINK-32381","OBJECT_ID":"2024-164S","EPOCH":"2025-08-11T01:05:28.286592","MEAN_MOTION":15.30183793,"ECCENTRICITY":9.4e-5,"INCLINATION":53.1619,"RA_OF_ASC_NODE":349.7774,"ARG_OF_PERICENTER":105.8479,"MEAN_ANOMALY":254.2625,"EPHEMERIS_TYPE":0,"CLASSIFICATION_TYPE":"U","NORAD_CAT_ID":61066,"ELEMENT_SET_NO":999,"REV_AT_EPOCH":5122,"BSTAR":-3.8545e-5,"MEAN_MOTION_DOT":-1.5e-5,"MEAN_MOTION_DDOT":0},{"OBJECT_NAME":"STARLINK-32385","OBJECT_ID":"2024-164U","EPOCH":"2025-08-10T15:21:24.065568","MEAN_MOTION":15.30179781,"ECCENTRICITY":0.0001193,"INCLINATION":53.1619,"RA_OF_ASC_NODE":351.5135,"ARG_OF_PERICENTER":84.8347,"MEAN_ANOMALY":275.279,"EPHEMERIS_TYPE":0,"CLASSIFICATION_TYPE":"U","NORAD_CAT_ID":61068,"ELEMENT_SET_NO":999,"REV_AT_EPOCH":5219,"BSTAR":-0.00010746,"MEAN_MOTION_DOT":-3.538e-5,"MEAN_MOTION_DDOT":0},{"OBJECT_NAME":"STARLINK-32380","OBJECT_ID":"2024-164V","EPOCH":"2025-08-10T15:16:49.589184","MEAN_MOTION":15.30188559,"ECCENTRICITY":0.0001332,"INCLINATION":53.162,"RA_OF_ASC_NODE":351.4943,"ARG_OF_PERICENTER":87.7587,"MEAN_ANOMALY":272.3566,"EPHEMERIS_TYPE":0,"CLASSIFICATION_TYPE":"U","NORAD_CAT_ID":61069,"ELEMENT_SET_NO":999,"REV_AT_EPOCH":5116,"BSTAR":-3.2426e-5,"MEAN_MOTION_DOT":-1.319e-5,"MEAN_MOTION_DDOT":0},{"OBJECT_NAME":"STARLINK-32375","OBJECT_ID":"2024-164W","EPOCH":"2025-08-10T15:30:31.760352","MEAN_MOTION":15.30167118,"ECCENTRICITY":0.0001242,"INCLINATION":53.1609,"RA_OF_ASC_NODE":351.5484,"ARG_OF_PERICENTER":74.9005,"MEAN_ANOMALY":285.2133,"EPHEMERIS_TYPE":0,"CLASSIFICATION_TYPE":"U","NORAD_CAT_ID":61070,"ELEMENT_SET_NO":999,"REV_AT_EPOCH":5116,"BSTAR":-0.00012766,"MEAN_MOTION_DOT":-4.134e-5,"MEAN_MOTION_DDOT":0},{"OBJECT_NAME":"STARLINK-11209 [DTC]","OBJECT_ID":"2024-171A","EPOCH":"2025-08-11T01:20:03.115968","MEAN_MOTION":15.69712052,"ECCENTRICITY":0.0001277,"INCLINATION":53.16,"RA_OF_ASC_NODE":134.8123,"ARG_OF_PERICENTER":79.175,"MEAN_ANOMALY":280.9411,"EPHEMERIS_TYPE":0,"CLASSIFICATION_TYPE":"U","NORAD_CAT_ID":61200,"ELEMENT_SET_NO":999,"REV_AT_EPOCH":5222,"BSTAR":-5.4145e-8,"MEAN_MOTION_DOT":-5.95e-6,"MEAN_MOTION_DDOT":0},{"OBJECT_NAME":"STARLINK-11257 [DTC]","OBJECT_ID":"2024-171B","EPOCH":"2025-08-11T04:16:20.727552","MEAN_MOTION":15.69716371,"ECCENTRICITY":0.0001493,"INCLINATION":53.158,"RA_OF_ASC_NODE":134.1463,"ARG_OF_PERICENTER":86.5875,"MEAN_ANOMALY":273.5314,"EPHEMERIS_TYPE":0,"CLASSIFICATION_TYPE":"U","NORAD_CAT_ID":61201,"ELEMENT_SET_NO":999,"REV_AT_EPOCH":5133,"BSTAR":2.2922e-6,"MEAN_MOTION_DOT":-3.12e-6,"MEAN_MOTION_DDOT":0},{"OBJECT_NAME":"STARLINK-11309 [DTC]","OBJECT_ID":"2024-171C","EPOCH":"2025-08-11T01:05:55.203648","MEAN_MOTION":15.69712264,"ECCENTRICITY":7.05e-5,"INCLINATION":53.1588,"RA_OF_ASC_NODE":134.7413,"ARG_OF_PERICENTER":76.7314,"MEAN_ANOMALY":283.3782,"EPHEMERIS_TYPE":0,"CLASSIFICATION_TYPE":"U","NORAD_CAT_ID":61202,"ELEMENT_SET_NO":999,"REV_AT_EPOCH":5131,"BSTAR":-2.812e-6,"MEAN_MOTION_DOT":-9.29e-6,"MEAN_MOTION_DDOT":0},{"OBJECT_NAME":"STARLINK-11292 [DTC]","OBJECT_ID":"2024-171D","EPOCH":"2025-08-11T04:02:13.286976","MEAN_MOTION":15.69715315,"ECCENTRICITY":0.0001393,"INCLINATION":53.1585,"RA_OF_ASC_NODE":134.0797,"ARG_OF_PERICENTER":88.6542,"MEAN_ANOMALY":271.4635,"EPHEMERIS_TYPE":0,"CLASSIFICATION_TYPE":"U","NORAD_CAT_ID":61203,"ELEMENT_SET_NO":999,"REV_AT_EPOCH":5133,"BSTAR":3.5933e-6,"MEAN_MOTION_DOT":-1.54e-6,"MEAN_MOTION_DDOT":0},{"OBJECT_NAME":"STARLINK-11302 [DTC]","OBJECT_ID":"2024-171E","EPOCH":"2025-08-11T00:51:47.474496","MEAN_MOTION":15.69716134,"ECCENTRICITY":0.0001069,"INCLINATION":53.1587,"RA_OF_ASC_NODE":134.6753,"ARG_OF_PERICENTER":93.2734,"MEAN_ANOMALY":266.8406,"EPHEMERIS_TYPE":0,"CLASSIFICATION_TYPE":"U","NORAD_CAT_ID":61204,"ELEMENT_SET_NO":999,"REV_AT_EPOCH":5131,"BSTAR":-5.6942e-6,"MEAN_MOTION_DOT":-1.278e-5,"MEAN_MOTION_DDOT":0},{"OBJECT_NAME":"STARLINK-11277 [DTC]","OBJECT_ID":"2024-171F","EPOCH":"2025-08-11T03:41:00.830976","MEAN_MOTION":15.69728024,"ECCENTRICITY":0.0001141,"INCLINATION":53.1601,"RA_OF_ASC_NODE":133.9826,"ARG_OF_PERICENTER":98.2135,"MEAN_ANOMALY":261.9013,"EPHEMERIS_TYPE":0,"CLASSIFICATION_TYPE":"U","NORAD_CAT_ID":61205,"ELEMENT_SET_NO":999,"REV_AT_EPOCH":5133,"BSTAR":1.1936e-5,"MEAN_MOTION_DOT":8.58e-6,"MEAN_MOTION_DDOT":0}]
