STARLINK-11297 [DTC]    
1 61060U 24164L   25222.73603937 -.00001760  00000+0 -96751-5 0  9999
2 61060  53.1573 271.3821 0001270  79.2364 280.8797 15.69692980 52287
STARLINK-11233 [DTC]    
1 61061U 24164M   25223.11315163 -.00005593  00000+0 -41394-4 0  9994
2 61061  53.1583 269.4661 0000343 131.4297 228.6750 15.69686802 52347
STARLINK-11236 [DTC]    
1 61062U 24164N   25223.10823342 -.00007971  00000+0 -61091-4 0  9995
2 61062  53.1589 269.4307 0000202 153.1701 206.9327 15.69679321 52343
STARLINK-32350          
1 61063U 24164P   25222.63036011 -.00000677  00000+0 -10756-4 0  9990
2 61063  53.1618 351.4567 0001179  98.8088 261.3046 15.30180553 51168
STARLINK-32378          
1 61064U 24164Q   25222.63353176 -.00003140  00000+0 -94000-4 0  9997
2 61064  53.1626 351.4746 0001186  74.8314 285.2818 15.30173922 52144
STARLINK-32321          
1 61065U 24164R   25222.64303144 -.00003468  00000+0 -10512-3 0  9997
2 61065  53.1617 351.5335 0001194  86.0991 274.0146 15.30174231 52194
STARLINK-32381          
1 61066U 24164S   25223.04546628 -.00001500  00000+0 -38545-4 0  9991
2 61066  53.1619 349.7774 0000940 105.8479 254.2625 15.30183793 51220
STARLINK-32385          
1 61068U 24164U   25222.63986187 -.00003538  00000+0 -10746-3 0  9990
2 61068  53.1619 351.5135 0001193  84.8347 275.2790 15.30179781 52190
STARLINK-32380          
1 61069U 24164V   25222.63668506 -.00001319  00000+0 -32426-4 0  9998
2 61069  53.1620 351.4943 0001332  87.7587 272.3566 15.30188559 51160
STARLINK-32375          
1 61070U 24164W   25222.64620093 -.00004134  00000+0 -12766-3 0  9992
2 61070  53.1609 351.5484 0001242  74.9005 285.2133 15.30167118 51164
STARLINK-11209 [DTC]    
1 61200U 24171A   25223.05559162 -.00000595  00000+0 -54145-7 0  9997
2 61200  53.1600 134.8123 0001277  79.1750 280.9411 15.69712052 52228
STARLINK-11257 [DTC]    
1 61201U 24171B   25223.17801768 -.00000312  00000+0  22922-5 0  9995
2 61201  53.1580 134.1463 0001493  86.5875 273.5314 15.69716371 51335
STARLINK-11309 [DTC]    
1 61202U 24171C   25223.04577782 -.00000929  00000+0 -28120-5 0  9999
2 61202  53.1588 134.7413 0000705  76.7314 283.3782 15.69712264 51312
STARLINK-11292 [DTC]    
1 61203U 24171D   25223.16820934 -.00000154  00000+0  35933-5 0  9992
2 61203  53.1585 134.0797 0001393  88.6542 271.4635 15.69715315 51334
STARLINK-11302 [DTC]    
1 61204U 24171E   25223.03596614 -.00001278  00000+0 -56942-5 0  9996
2 61204  53.1587 134.6753 0001069  93.2734 266.8406 15.69716134 51312
STARLINK-11277 [DTC]    
1 61205U 24171F   25223.15348184  .00000858  00000+0  11936-4 0  9991
2 61205  53.1601 133.9826 0001141  98.2135 261.9013 15.69728024 51337
